{
    "links": {
        "self": "http://www.neowsapp.com/rest/v1/neo/3297368?api_key=iIulBulltgU6a56xZRHN4H3l9WmuAYTsLGpBGhQ2"
    },
    "id": "3297368",
    "neo_reference_id": "3297368",
    "name": "(2005 US6)",
    "designation": "2005 US6",
    "nasa_jpl_url": "http://ssd.jpl.nasa.gov/sbdb.cgi?sstr=3297368",
    "absolute_magnitude_h": 24.8,
    "estimated_diameter": {
        "kilometers": {
            "estimated_diameter_min": 0.0291443905,
            "estimated_diameter_max": 0.0651688382
        },
        "meters": {
            "estimated_diameter_min": 29.1443904535,
            "estimated_diameter_max": 65.1688382168
        },
        "miles": {
            "estimated_diameter_min": 0.018109479,
            "estimated_diameter_max": 0.0404940262
        },
        "feet": {
            "estimated_diameter_min": 95.6180819754,
            "estimated_diameter_max": 213.8085311752
        }
    },
    "is_potentially_hazardous_asteroid": false,
    "close_approach_data": [
        {
            "close_approach_date": "2005-10-05",
            "close_approach_date_full": "2005-Oct-05 14:27",
            "epoch_date_close_approach": 1128522420000,
            "relative_velocity": {
                "kilometers_per_second": "8.6357255627",
                "kilometers_per_hour": "31088.612025783",
                "miles_per_hour": "19317.2545112428"
            },
            "miss_distance": {
                "astronomical": "0.0311592888",
                "lunar": "12.1209633432",
                "kilometers": "4661363.235194856",
                "miles": "2896436.8047907728"
            },
            "orbiting_body": "Earth"
        },
        {
            "close_approach_date": "2006-01-15",
            "close_approach_date_full": "2006-Jan-15 07:15",
            "epoch_date_close_approach": 1137309300000,
            "relative_velocity": {
                "kilometers_per_second": "6.120564015",
                "kilometers_per_hour": "22034.0304538743",
                "miles_per_hour": "13691.0896450754"
            },
            "miss_distance": {
                "astronomical": "0.0990180218",
                "lunar": "38.5180104802",
                "kilometers": "14812885.152893566",
                "miles": "9204300.0249445708"
            },
            "orbiting_body": "Mars"
        }
    ],
    "orbital_data": {
        "orbit_id": "7",
        "orbit_determination_date": "2017-04-06 09:10:03",
        "first_observation_date": "2005-10-28",
        "last_observation_date": "2005-10-31",
        "data_arc_in_days": 3,
        "observations_used": 19,
        "orbit_uncertainty": "9",
        "minimum_orbit_intersection": ".0163069",
        "jupiter_tisserand_invariant": "4.286",
        "epoch_osculation": "2453673.5",
        "eccentricity": ".4001664166537737",
        "semi_major_axis": "1.589676421863912",
        "inclination": "1.724800959600672",
        "ascending_node_longitude": "40.02992873487575",
        "orbital_period": "732.0850296435254",
        "perihelion_distance": ".9535413044876375",
        "perihelion_argument": "293.2570353924789",
        "aphelion_distance": "2.225811539240186",
        "perihelion_time": "2453617.685182752394",
        "mean_anomaly": "27.44672189092873",
        "mean_motion": ".4917461571032192",
        "equinox": "J2000",
        "orbit_class": {
            "orbit_class_type": "APO",
            "orbit_class_description": "Near-Earth asteroid orbits which cross the Earth’s orbit similar to that of 1862 Apollo",
            "orbit_class_range": "a (semi-major axis) > 1.0 AU; q (perihelion) < 1.017 AU"
        }
    },
    "is_sentry_object": false
}